{
    "links": {
        "self": "http://www.neowsapp.com/rest/v1/neo/3662915?api_key=iIulBulltgU6a56xZRHN4H3l9WmuAYTsLGpBGhQ2"
    },
    "id": "3662915",
    "neo_reference_id": "3662915",
    "name": "(2014 DY110)",
    "designation": "2014 DY110",
    "nasa_jpl_url": "http://ssd.jpl.nasa.gov/sbdb.cgi?sstr=3662915",
    "absolute_magnitude_h": 25.6,
    "estimated_diameter": {
        "kilometers": {
            "estimated_diameter_min": 0.0201629919,
            "estimated_diameter_max": 0.0450858206
        },
        "meters": {
            "estimated_diameter_min": 20.1629919443,
            "estimated_diameter_max": 45.0858206172
        },
        "miles": {
            "estimated_diameter_min": 0.0125286985,
            "estimated_diameter_max": 0.0280150214
        },
        "feet": {
            "estimated_diameter_min": 66.1515504905,
            "estimated_diameter_max": 147.9193637137
        }
    },
    "is_potentially_hazardous_asteroid": false,
    "close_approach_data": [
        {
            "close_approach_date": "2012-03-29",
            "close_approach_date_full": "2012-Mar-29 13:55",
            "epoch_date_close_approach": 1333029300000,
            "relative_velocity": {
                "kilometers_per_second": "12.3247478884",
                "kilometers_per_hour": "44369.0923980661",
                "miles_per_hour": "27569.2285514539"
            },
            "miss_distance": {
                "astronomical": "0.3433983408",
                "lunar": "133.5819545712",
                "kilometers": "51371660.345214096",
                "miles": "31920869.5481266848"
            },
            "orbiting_body": "Earth"
        },
        {
            "close_approach_date": "2014-02-28",
            "close_approach_date_full": "2014-Feb-28 06:10",
            "epoch_date_close_approach": 1393567800000,
            "relative_velocity": {
                "kilometers_per_second": "4.6352358363",
                "kilometers_per_hour": "16686.8490105428",
                "miles_per_hour": "10368.5590421342"
            },
            "miss_distance": {
                "astronomical": "0.0748944375",
                "lunar": "29.1339361875",
                "kilometers": "11204048.324848125",
                "miles": "6961872.802729125"
            },
            "orbiting_body": "Earth"
        },
        {
            "close_approach_date": "2016-01-31",
            "close_approach_date_full": "2016-Jan-31 19:34",
            "epoch_date_close_approach": 1454268840000,
            "relative_velocity": {
                "kilometers_per_second": "13.3927121424",
                "kilometers_per_hour": "48213.7637125694",
                "miles_per_hour": "29958.1577912907"
            },
            "miss_distance": {
                "astronomical": "0.3941936303",
                "lunar": "153.3413221867",
                "kilometers": "58970527.460447461",
                "miles": "36642586.6246025218"
            },
            "orbiting_body": "Earth"
        },
        {
            "close_approach_date": "2187-04-01",
            "close_approach_date_full": "2187-Apr-01 04:17",
            "epoch_date_close_approach": 6855682620000,
            "relative_velocity": {
                "kilometers_per_second": "11.8124650883",
                "kilometers_per_hour": "42524.8743178314",
                "miles_per_hour": "26423.3031559881"
            },
            "miss_distance": {
                "astronomical": "0.3277865776",
                "lunar": "127.5089786864",
                "kilometers": "49036173.823549712",
                "miles": "30469665.5167895456"
            },
            "orbiting_body": "Earth"
        }
    ],
    "orbital_data": {
        "orbit_id": "6",
        "orbit_determination_date": "2017-04-06 08:42:14",
        "first_observation_date": "2014-02-28",
        "last_observation_date": "2014-03-10",
        "data_arc_in_days": 10,
        "observations_used": 14,
        "orbit_uncertainty": "8",
        "minimum_orbit_intersection": ".071508",
        "jupiter_tisserand_invariant": "4.371",
        "epoch_osculation": "2456717.5",
        "eccentricity": ".318603261707248",
        "semi_major_axis": "1.557943421231771",
        "inclination": "6.183598789072263",
        "ascending_node_longitude": "344.0552823685443",
        "orbital_period": "710.2740523073998",
        "perihelion_distance": "1.06157756567198",
        "perihelion_argument": "172.6778231514957",
        "aphelion_distance": "2.054309276791563",
        "perihelion_time": "2456713.083278261525",
        "mean_anomaly": "2.238600467925942",
        "mean_motion": ".5068466162187711",
        "equinox": "J2000",
        "orbit_class": {
            "orbit_class_type": "AMO",
            "orbit_class_description": "Near-Earth asteroid orbits similar to that of 1221 Amor",
            "orbit_class_range": "1.017 AU < q (perihelion) < 1.3 AU"
        }
    },
    "is_sentry_object": false
}